IRNSS-1F                
1 41384U 16015A   25322.06414274  .00000177  00000+0  00000+0 0  9998
2 41384   4.8179 101.9172 0021237 179.3936 191.6095  1.00276378 35558
BEIDOU-2 IGSO-6         
1 41434U 16021A   25321.71724291 -.00000166  00000+0  00000+0 0  9994
2 41434  59.9303  40.1506 0059096 230.4532 137.5397  1.00259733 35363
IRNSS-1G                
1 41469U 16027A   25321.97594426 -.00000315  00000+0  00000+0 0  9997
2 41469   4.6746 102.7296 0001832  25.1004  50.3585  1.00274077 35064
GSAT0211 (GALILEO 14)   
1 41549U 16030A   25321.03948102 -.00000011  00000+0  00000+0 0  9994
2 41549  55.1618 227.5308 0003715 358.7417   1.3021  1.70473074 59058
GSAT0210 (GALILEO 13)   
1 41550U 16030B   25321.29697219 -.00000008  00000+0  00000+0 0  9990
2 41550  55.1610 227.5218 0001737 248.3084 111.7196  1.70473562 59059
EUTELSAT 117 WEST B     
1 41589U 16038B   25321.51882091  .00000003  00000+0  00000+0 0  9993
2 41589   0.0136 136.9088 0000098   9.7642 339.9677  1.00273314 34540
GSAT0207 (GALILEO 15)   
1 41859U 16069A   25319.22910071  .00000040  00000+0  00000+0 0  9993
2 41859  55.3659 107.0118 0001957 337.0942  22.8824  1.70474267 55756
GSAT0212 (GALILEO 16)   
1 41860U 16069B   25320.84253299  .00000034  00000+0  00000+0 0  9990
2 41860  55.3642 106.9626 0002500  40.4027 319.5940  1.70474521 56036
GSAT0213 (GALILEO 17)   
1 41861U 16069C   25320.03697926  .00000037  00000+0  00000+0 0  9994
2 41861  55.3658 106.9924 0001705 287.8702  72.0933  1.70474784 55884
GSAT0214 (GALILEO 18)   
1 41862U 16069D   25321.94268407  .00000030  00000+0  00000+0 0  9997
2 41862  55.3657 106.9327 0000788 302.0857  57.8792  1.70474633 56048
SES-15                  
1 42709U 17026A   25322.16686461  .00000077  00000+0  00000+0 0  9992
2 42709   0.0226 340.7892 0000085 290.2514  77.3372  1.00268912  5310
QZS-2 (MICHIBIKI-2)     
1 42738U 17028A   25317.67672847 -.00000243  00000+0  00000+0 0  9995
2 42738  39.7622 246.3090 0762360 269.1324 281.6069  1.00290964  5468
